{
  "type": "FeatureCollection",
  "features": [
    {
      "type": "Feature",
      "properties": {
        "norad_id": 22490,
        "name": "SCD 1",
        "group": "resource",
        "lat": 19.327914735703526,
        "lon": -41.1916338287445,
        "alt_km": 704.1722240710396,
        "timestamp": "2025-12-27T11:23:19.533716+00:00",
        "meta_object_name": "SCD 1",
        "meta_object_id": "1993-009B",
        "meta_epoch": "2025-12-26T15:05:04.547040",
        "meta_mean_motion": 14.46008245,
        "meta_eccentricity": 0.0042179,
        "meta_inclination": 24.9674,
        "meta_ra_of_asc_node": 192.9471,
        "meta_arg_of_pericenter": 111.7084,
        "meta_mean_anomaly": 283.5703,
        "meta_ephemeris_type": 0,
        "meta_classification_type": "U",
        "meta_norad_cat_id": 22490,
        "meta_element_set_no": 999,
        "meta_rev_at_epoch": 73611,
        "meta_bstar": 9.5318e-05,
        "meta_mean_motion_dot": 5.34e-06,
        "meta_mean_motion_ddot": 0,
        "tle_line1": "1 22490U 93009B   25360.62852485  .00000534  00000+0  95318-4 0  9995",
        "tle_line2": "2 22490  24.9674 192.9471 0042179 111.7084 283.5703 14.46008245736119"
      },
      "geometry": {
        "type": "Point",
        "coordinates": [
          -41.1916338287445,
          19.327914735703526
        ]
      }
    },
    {
      "type": "Feature",
      "properties": {
        "norad_id": 25397,
        "name": "TECHSAT 1B (GO-32)",
        "group": "resource",
        "lat": 78.77252474343155,
        "lon": -67.89444891978967,
        "alt_km": 802.4832115466888,
        "timestamp": "2025-12-27T11:23:19.533756+00:00",
        "meta_object_name": "TECHSAT 1B (GO-32)",
        "meta_object_id": "1998-043D",
        "meta_epoch": "2025-12-26T21:30:44.500032",
        "meta_mean_motion": 14.24381035,
        "meta_eccentricity": 0.0001601,
        "meta_inclination": 98.9935,
        "meta_ra_of_asc_node": 344.436,
        "meta_arg_of_pericenter": 33.7104,
        "meta_mean_anomaly": 326.4176,
        "meta_ephemeris_type": 0,
        "meta_classification_type": "U",
        "meta_norad_cat_id": 25397,
        "meta_element_set_no": 999,
        "meta_rev_at_epoch": 42680,
        "meta_bstar": 7.2286e-05,
        "meta_mean_motion_dot": 1.21e-06,
        "meta_mean_motion_ddot": 0,
        "tle_line1": "1 25397U 98043D   25360.89634838  .00000121  00000+0  72286-4 0  9997",
        "tle_line2": "2 25397  98.9935 344.4360 0001601  33.7104 326.4176 14.24381035426801"
      },
      "geometry": {
        "type": "Point",
        "coordinates": [
          -67.89444891978967,
          78.77252474343155
        ]
      }
    },
    {
      "type": "Feature",
      "properties": {
        "norad_id": 25504,
        "name": "SCD 2",
        "group": "resource",
        "lat": 18.998920615869814,
        "lon": -176.60401809444846,
        "alt_km": 724.5386347798549,
        "timestamp": "2025-12-27T11:23:19.533772+00:00",
        "meta_object_name": "SCD 2",
        "meta_object_id": "1998-060A",
        "meta_epoch": "2025-12-27T04:18:28.238400",
        "meta_mean_motion": 14.45431341,
        "meta_eccentricity": 0.0017063,
        "meta_inclination": 24.9958,
        "meta_ra_of_asc_node": 52.8597,
        "meta_arg_of_pericenter": 105.275,
        "meta_mean_anomaly": 285.8296,
        "meta_ephemeris_type": 0,
        "meta_classification_type": "U",
        "meta_norad_cat_id": 25504,
        "meta_element_set_no": 999,
        "meta_rev_at_epoch": 43541,
        "meta_bstar": 9.0145e-05,
        "meta_mean_motion_dot": 5.05e-06,
        "meta_mean_motion_ddot": 0,
        "tle_line1": "1 25504U 98060A   25361.17949350  .00000505  00000+0  90145-4 0  9996",
        "tle_line2": "2 25504  24.9958  52.8597 0017063 105.2750 285.8296 14.45431341435415"
      },
      "geometry": {
        "type": "Point",
        "coordinates": [
          -176.60401809444846,
          18.998920615869814
        ]
      }
    },
    {
      "type": "Feature",
      "properties": {
        "norad_id": 25757,
        "name": "DLR-TUBSAT",
        "group": "resource",
        "lat": -16.54359933684571,
        "lon": -10.963416322976197,
        "alt_km": 732.4868524018657,
        "timestamp": "2025-12-27T11:23:19.533784+00:00",
        "meta_object_name": "DLR-TUBSAT",
        "meta_object_id": "1999-029B",
        "meta_epoch": "2025-12-17T13:22:10.787520",
        "meta_mean_motion": 14.52359578,
        "meta_eccentricity": 0.00141996,
        "meta_inclination": 98.6566,
        "meta_ra_of_asc_node": 336.2196,
        "meta_arg_of_pericenter": 177.8976,
        "meta_mean_anomaly": 182.2281,
        "meta_ephemeris_type": 0,
        "meta_classification_type": "U",
        "meta_norad_cat_id": 25757,
        "meta_element_set_no": 999,
        "meta_rev_at_epoch": 40688,
        "meta_bstar": 3.7650132e-05,
        "meta_mean_motion_dot": 1.05e-06,
        "meta_mean_motion_ddot": 0,
        "tle_line1": "1 25757U 99029B   25351.55706930  .00000105  00000+0  37650-4 0  9996",
        "tle_line2": "2 25757  98.6566 336.2196 0014199 177.8976 182.2281 14.52359578406886"
      },
      "geometry": {
        "type": "Point",
        "coordinates": [
          -10.963416322976197,
          -16.54359933684571
        ]
      }
    },
    {
      "type": "Feature",
      "properties": {
        "norad_id": 25994,
        "name": "TERRA",
        "group": "resource",
        "lat": 40.73264702377567,
        "lon": -120.45147151789125,
        "alt_km": 686.3480993641679,
        "timestamp": "2025-12-27T11:23:19.533796+00:00",
        "meta_object_name": "TERRA",
        "meta_object_id": "1999-068A",
        "meta_epoch": "2025-12-27T02:46:41.657088",
        "meta_mean_motion": 14.60918152,
        "meta_eccentricity": 0.0003362,
        "meta_inclination": 97.9729,
        "meta_ra_of_asc_node": 52.2712,
        "meta_arg_of_pericenter": 65.6472,
        "meta_mean_anomaly": 347.2518,
        "meta_ephemeris_type": 0,
        "meta_classification_type": "U",
        "meta_norad_cat_id": 25994,
        "meta_element_set_no": 999,
        "meta_rev_at_epoch": 38448,
        "meta_bstar": 0.00012634,
        "meta_mean_motion_dot": 5.74e-06,
        "meta_mean_motion_ddot": 0,
        "tle_line1": "1 25994U 99068A   25361.11575992  .00000574  00000+0  12634-3 0  9991",
        "tle_line2": "2 25994  97.9729  52.2712 0003362  65.6472 347.2518 14.60918152384481"
      },
      "geometry": {
        "type": "Point",
        "coordinates": [
          -120.45147151789125,
          40.73264702377567
        ]
      }
    },
    {
      "type": "Feature",
      "properties": {
        "norad_id": 27004,
        "name": "MAROC-TUBSAT",
        "group": "resource",
        "lat": 6.970964767346662,
        "lon": 168.96773976447867,
        "alt_km": 1012.336042386999,
        "timestamp": "2025-12-27T11:23:19.533808+00:00",
        "meta_object_name": "MAROC-TUBSAT",
        "meta_object_id": "2001-056D",
        "meta_epoch": "2025-12-27T01:22:59.257056",
        "meta_mean_motion": 13.70253596,
        "meta_eccentricity": 0.0019324,
        "meta_inclination": 99.7918,
        "meta_ra_of_asc_node": 169.7536,
        "meta_arg_of_pericenter": 222.2128,
        "meta_mean_anomaly": 249.3798,
        "meta_ephemeris_type": 0,
        "meta_classification_type": "U",
        "meta_norad_cat_id": 27004,
        "meta_element_set_no": 999,
        "meta_rev_at_epoch": 20261,
        "meta_bstar": 3.1115e-05,
        "meta_mean_motion_dot": -1.9e-07,
        "meta_mean_motion_ddot": 0,
        "tle_line1": "1 27004U 01056D   25361.05763029 -.00000019  00000+0  31115-4 0  9999",
        "tle_line2": "2 27004  99.7918 169.7536 0019324 222.2128 249.3798 13.70253596202617"
      },
      "geometry": {
        "type": "Point",
        "coordinates": [
          168.96773976447867,
          6.970964767346662
        ]
      }
    },
    {
      "type": "Feature",
      "properties": {
        "norad_id": 27424,
        "name": "AQUA",
        "group": "resource",
        "lat": 60.53843180654076,
        "lon": -52.58024393182025,
        "alt_km": 680.5355317165249,
        "timestamp": "2025-12-27T11:23:19.533819+00:00",
        "meta_object_name": "AQUA",
        "meta_object_id": "2002-022A",
        "meta_epoch": "2025-12-26T23:47:53.598048",
        "meta_mean_motion": 14.61764548,
        "meta_eccentricity": 0.0001849,
        "meta_inclination": 98.4058,
        "meta_ra_of_asc_node": 322.1038,
        "meta_arg_of_pericenter": 99.7002,
        "meta_mean_anomaly": 302.1298,
        "meta_ephemeris_type": 0,
        "meta_classification_type": "U",
        "meta_norad_cat_id": 27424,
        "meta_element_set_no": 999,
        "meta_rev_at_epoch": 25811,
        "meta_bstar": 0.00027355,
        "meta_mean_motion_dot": 1.315e-05,
        "meta_mean_motion_ddot": 0,
        "tle_line1": "1 27424U 02022A   25360.99159257  .00001315  00000+0  27355-3 0  9992",
        "tle_line2": "2 27424  98.4058 322.1038 0001849  99.7002 302.1298 14.61764548258111"
      },
      "geometry": {
        "type": "Point",
        "coordinates": [
          -52.58024393182025,
          60.53843180654076
        ]
      }
    }
  ]
}